CRE (WAAS/PRN 138)      
1 28868U 05036A   25001.08181559 -.00000057  00000+0  00000+0 0  9992
2 28868   2.9439  83.2325 0001243 223.0445  76.8781  1.00271471 70821
IOR-W (EGNOS/PRN 126)   
1 28899U 05044A   24366.84576347 -.00000243  00000+0  00000+0 0  9992
2 28899   4.4137  43.1007 0002967 242.7892 262.8224  1.00271520 70180
GSAT-8 (GAGAN/PRN 127)  
1 37605U 11022A   24366.90813426  .00000105  00000+0  00000+0 0  9995
2 37605   0.7510  88.7358 0008672 184.6115 209.4624  1.00271022 47883
LUCH 5A (SDCM/PRN 140)  
1 37951U 11074B   25001.42204307 -.00000035  00000+0  00000+0 0  9995
2 37951   7.3935  81.8569 0004124 178.9497 159.3171  1.00273330 47857
SES-5 (EGNOS/PRN 136)   
1 38652U 12036A   24366.60382256  .00000055  00000+0  00000+0 0  9997
2 38652   0.0557 304.5233 0001595 330.0451  48.2939  1.00269713 39139
GSAT-10 (GAGAN/PRN 128) 
1 38779U 12051B   25001.11952174 -.00000145  00000+0  00000+0 0  9990
2 38779   0.0690 261.3179 0002326 207.2565 118.5291  1.00271179 44957
LUCH 5B (SDCM/PRN 125)  
1 38977U 12061A   25001.45705594 -.00000123  00000+0  00000+0 0  9996
2 38977   9.3239  54.9423 0005315 187.4372   7.1811  1.00271810 44843
ASTRA 5B (EGNOS/PRN 123)
1 39617U 14011B   24366.91369142  .00000158  00000+0  00000+0 0  9991
2 39617   0.0460 339.0453 0004143 298.2372 175.9720  1.00273839 39332
LUCH 5V (SDCM/PRN 141)  
1 39727U 14023A   24366.86757019 -.00000251  00000+0  00000+0 0  9999
2 39727   3.7978  74.5912 0003925 219.0319 214.2131  1.00272832 39029
GSAT-15 (GAGAN/PRN 139) 
1 41028U 15065A   25001.12160687 -.00000237  00000+0  00000+0 0  9992
2 41028   0.0422 260.1372 0002054 353.1507 345.0126  1.00270366 33520
E 117 W B (WAAS/PRN 131)
1 41589U 16038B   24366.63368115  .00000010  00000+0  00000+0 0  9998
2 41589   0.0139 154.4765 0000334 120.8419 296.3339  1.00270759 31335
SES-15 (WAAS/PRN 133)   
1 42709U 17026A   24365.37202087  .00000085  00000+0  00000+0 0  9998
2 42709   0.0187  19.4876 0000141 274.2975 170.2745  1.00267145  2090
QZS-2 (QZSS/PRN 194)    
1 42738U 17028A   24366.51734396 -.00000087  00000+0  00000+0 0  9995
2 42738  40.2568 250.9104 0754829 269.6531 267.7706  1.00279719  2282
QZS-3 (QZSS/PRN 199)    
1 42917U 17048A   24366.90535729 -.00000327  00000+0  00000+0 0  9995
2 42917   0.0650 208.1933 0002043  78.5655 267.0260  1.00271832 26923
QZS-4 (QZSS/PRN 195)    
1 42965U 17062A   24362.55006255 -.00000326  00000+0  00000+0 0  9997
2 42965  40.4220 350.3323 0751752 271.9012 167.8126  1.00248203 26423
BEIDOU-3 G1 (PRN 130)   
1 43683U 18085A   24366.84506844 -.00000260  00000+0  00000+0 0  9993
2 43683   2.6831 102.7785 0001071  42.8007  39.4078  1.00267627 22721
BEIDOU-3 G2 (PRN 144)   
1 45344U 20017A   24366.90458160 -.00000122  00000+0  00000+0 0  9998
2 45344   2.5935  36.3195 0004075 234.0773 236.0765  1.00271057 17926
BEIDOU-3 G3 (PRN 143)   
1 45807U 20040A   24366.91066323 -.00000334  00000+0  00000+0 0  9990
2 45807   1.1742  58.4666 0003870 306.1004 174.6154  1.00267585 16737
GALAXY 30 (WAAS/PRN 135)
1 46114U 20056C   24366.73978751  .00000058  00000+0  00000+0 0  9998
2 46114   0.0183  19.3165 0001860 260.0269 322.6277  1.00270721 15954
QZS-1R (QZSS/PRN 196)   
1 49336U 21096A   24366.11577098 -.00000251  00000+0  00000+0 0  9999
2 49336  36.3541  87.5558 0756501 271.6037 276.8091  1.00255315 11666
